CCSDS_OMM_VERS = 2.0
CREATION_DATE  = 
ORIGINATOR     = 

OBJECT_NAME    = STARLINK-35501
OBJECT_ID      = 2025-259Q
CENTER_NAME    = EARTH
REF_FRAME      = TEME
TIME_SYSTEM    = UTC
MEAN_ELEMENT_THEORY = SGP/SGP4

EPOCH          = 2025-12-10T06:00:02.000160
MEAN_MOTION    = 15.40635034
ECCENTRICITY   = .00009789
INCLINATION    = 42.9999
RA_OF_ASC_NODE = 62.0011
ARG_OF_PERICENTER = 268.8785
MEAN_ANOMALY   = 75.8556

EPHEMERIS_TYPE = 0
CLASSIFICATION_TYPE = U
NORAD_CAT_ID   = 66436
ELEMENT_SET_NO = 999
REV_AT_EPOCH   = 588
BSTAR          = .16614806E-2
MEAN_MOTION_DOT = .69585E-3
MEAN_MOTION_DDOT = 0

CCSDS_OMM_VERS = 2.0
CREATION_DATE  = 
ORIGINATOR     = 

OBJECT_NAME    = STARLINK-35474
OBJECT_ID      = 2025-259R
CENTER_NAME    = EARTH
REF_FRAME      = TEME
TIME_SYSTEM    = UTC
MEAN_ELEMENT_THEORY = SGP/SGP4

EPOCH          = 2025-12-10T06:00:02.000160
MEAN_MOTION    = 15.40633265
ECCENTRICITY   = .00013535
INCLINATION    = 42.9998
RA_OF_ASC_NODE = 61.9699
ARG_OF_PERICENTER = 268.0500
MEAN_ANOMALY   = 89.1232

EPHEMERIS_TYPE = 0
CLASSIFICATION_TYPE = U
NORAD_CAT_ID   = 66437
ELEMENT_SET_NO = 999
REV_AT_EPOCH   = 588
BSTAR          = .16969028E-2
MEAN_MOTION_DOT = .71085E-3
MEAN_MOTION_DDOT = 0

CCSDS_OMM_VERS = 2.0
CREATION_DATE  = 
ORIGINATOR     = 

OBJECT_NAME    = STARLINK-34681
OBJECT_ID      = 2025-259S
CENTER_NAME    = EARTH
REF_FRAME      = TEME
TIME_SYSTEM    = UTC
MEAN_ELEMENT_THEORY = SGP/SGP4

EPOCH          = 2025-12-10T06:00:02.000160
MEAN_MOTION    = 15.40715332
ECCENTRICITY   = .00011311
INCLINATION    = 43.0002
RA_OF_ASC_NODE = 61.9403
ARG_OF_PERICENTER = 285.1427
MEAN_ANOMALY   = 84.4312

EPHEMERIS_TYPE = 0
CLASSIFICATION_TYPE = U
NORAD_CAT_ID   = 66438
ELEMENT_SET_NO = 999
REV_AT_EPOCH   = 577
BSTAR          = -.16819393E-2
MEAN_MOTION_DOT = -.69955E-3
MEAN_MOTION_DDOT = 0

CCSDS_OMM_VERS = 2.0
CREATION_DATE  = 
ORIGINATOR     = 

OBJECT_NAME    = STARLINK-35327
OBJECT_ID      = 2025-259T
CENTER_NAME    = EARTH
REF_FRAME      = TEME
TIME_SYSTEM    = UTC
MEAN_ELEMENT_THEORY = SGP/SGP4

EPOCH          = 2025-12-10T06:00:02.000160
MEAN_MOTION    = 15.40719988
ECCENTRICITY   = .00006879
INCLINATION    = 43.0001
RA_OF_ASC_NODE = 62.0324
ARG_OF_PERICENTER = 250.5725
MEAN_ANOMALY   = 81.6566

EPHEMERIS_TYPE = 0
CLASSIFICATION_TYPE = U
NORAD_CAT_ID   = 66439
ELEMENT_SET_NO = 999
REV_AT_EPOCH   = 588
BSTAR          = -.11232135E-2
MEAN_MOTION_DOT = -.46964E-3
MEAN_MOTION_DDOT = 0

CCSDS_OMM_VERS = 2.0
CREATION_DATE  = 
ORIGINATOR     = 

OBJECT_NAME    = STARLINK-35405
OBJECT_ID      = 2025-259U
CENTER_NAME    = EARTH
REF_FRAME      = TEME
TIME_SYSTEM    = UTC
MEAN_ELEMENT_THEORY = SGP/SGP4

EPOCH          = 2025-12-10T06:00:02.000160
MEAN_MOTION    = 15.40778599
ECCENTRICITY   = .0001526
INCLINATION    = 43.0003
RA_OF_ASC_NODE = 61.9112
ARG_OF_PERICENTER = 268.8365
MEAN_ANOMALY   = 113.1513

EPHEMERIS_TYPE = 0
CLASSIFICATION_TYPE = U
NORAD_CAT_ID   = 66440
ELEMENT_SET_NO = 999
REV_AT_EPOCH   = 588
BSTAR          = -.4359058E-2
MEAN_MOTION_DOT = -.178664E-2
MEAN_MOTION_DDOT = 0

CCSDS_OMM_VERS = 2.0
CREATION_DATE  = 
ORIGINATOR     = 

OBJECT_NAME    = STARLINK-35426
OBJECT_ID      = 2025-259V
CENTER_NAME    = EARTH
REF_FRAME      = TEME
TIME_SYSTEM    = UTC
MEAN_ELEMENT_THEORY = SGP/SGP4

EPOCH          = 2025-12-10T06:00:02.000160
MEAN_MOTION    = 15.42606673
ECCENTRICITY   = .00015713
INCLINATION    = 43.0004
RA_OF_ASC_NODE = 61.8842
ARG_OF_PERICENTER = 267.3049
MEAN_ANOMALY   = 125.8844

EPHEMERIS_TYPE = 0
CLASSIFICATION_TYPE = U
NORAD_CAT_ID   = 66441
ELEMENT_SET_NO = 999
REV_AT_EPOCH   = 588
BSTAR          = -.57927478E-1
MEAN_MOTION_DOT = -.2303976E-1
MEAN_MOTION_DDOT = 0

CCSDS_OMM_VERS = 2.0
CREATION_DATE  = 
ORIGINATOR     = 

OBJECT_NAME    = STARLINK-34724
OBJECT_ID      = 2025-259W
CENTER_NAME    = EARTH
REF_FRAME      = TEME
TIME_SYSTEM    = UTC
MEAN_ELEMENT_THEORY = SGP/SGP4

EPOCH          = 2025-12-10T06:00:02.000160
MEAN_MOTION    = 15.43767618
ECCENTRICITY   = .00014276
INCLINATION    = 43.0009
RA_OF_ASC_NODE = 61.8602
ARG_OF_PERICENTER = 282.2031
MEAN_ANOMALY   = 120.8762

EPHEMERIS_TYPE = 0
CLASSIFICATION_TYPE = U
NORAD_CAT_ID   = 66442
ELEMENT_SET_NO = 999
REV_AT_EPOCH   = 588
BSTAR          = -.473511E-1
MEAN_MOTION_DOT = -.1959146E-1
MEAN_MOTION_DDOT = 0

CCSDS_OMM_VERS = 2.0
CREATION_DATE  = 
ORIGINATOR     = 

OBJECT_NAME    = STARLINK-35219
OBJECT_ID      = 2025-259X
CENTER_NAME    = EARTH
REF_FRAME      = TEME
TIME_SYSTEM    = UTC
MEAN_ELEMENT_THEORY = SGP/SGP4

EPOCH          = 2025-12-10T06:00:02.000160
MEAN_MOTION    = 15.45119562
ECCENTRICITY   = .00013166
INCLINATION    = 43.0003
RA_OF_ASC_NODE = 61.8398
ARG_OF_PERICENTER = 268.8685
MEAN_ANOMALY   = 142.6491

EPHEMERIS_TYPE = 0
CLASSIFICATION_TYPE = U
NORAD_CAT_ID   = 66443
ELEMENT_SET_NO = 999
REV_AT_EPOCH   = 577
BSTAR          = -.47414102E-1
MEAN_MOTION_DOT = -.2044447E-1
MEAN_MOTION_DDOT = 0

CCSDS_OMM_VERS = 2.0
CREATION_DATE  = 
ORIGINATOR     = 

OBJECT_NAME    = STARLINK-35360
OBJECT_ID      = 2025-259Y
CENTER_NAME    = EARTH
REF_FRAME      = TEME
TIME_SYSTEM    = UTC
MEAN_ELEMENT_THEORY = SGP/SGP4

EPOCH          = 2025-12-09T14:14:38.914944
MEAN_MOTION    = 15.50671448
ECCENTRICITY   = .0003008
INCLINATION    = 43.0004
RA_OF_ASC_NODE = 65.6336
ARG_OF_PERICENTER = 269.9974
MEAN_ANOMALY   = 90.0542

EPHEMERIS_TYPE = 0
CLASSIFICATION_TYPE = U
NORAD_CAT_ID   = 66444
ELEMENT_SET_NO = 999
REV_AT_EPOCH   = 568
BSTAR          = .18101E-2
MEAN_MOTION_DOT = .107686E-2
MEAN_MOTION_DDOT = 0

CCSDS_OMM_VERS = 2.0
CREATION_DATE  = 
ORIGINATOR     = 

OBJECT_NAME    = STARLINK-34698
OBJECT_ID      = 2025-259Z
CENTER_NAME    = EARTH
REF_FRAME      = TEME
TIME_SYSTEM    = UTC
MEAN_ELEMENT_THEORY = SGP/SGP4

EPOCH          = 2025-12-10T06:00:02.000160
MEAN_MOTION    = 15.46449762
ECCENTRICITY   = .0001344
INCLINATION    = 43.0011
RA_OF_ASC_NODE = 61.8220
ARG_OF_PERICENTER = 269.9261
MEAN_ANOMALY   = 148.6112

EPHEMERIS_TYPE = 0
CLASSIFICATION_TYPE = U
NORAD_CAT_ID   = 66445
ELEMENT_SET_NO = 999
REV_AT_EPOCH   = 577
BSTAR          = -.4517514E-1
MEAN_MOTION_DOT = -.2040488E-1
MEAN_MOTION_DDOT = 0

CCSDS_OMM_VERS = 2.0
CREATION_DATE  = 
ORIGINATOR     = 

OBJECT_NAME    = STARLINK-34986
OBJECT_ID      = 2025-259AA
CENTER_NAME    = EARTH
REF_FRAME      = TEME
TIME_SYSTEM    = UTC
MEAN_ELEMENT_THEORY = SGP/SGP4

EPOCH          = 2025-12-09T14:15:08.032608
MEAN_MOTION    = 15.50623850
ECCENTRICITY   = .0002711
INCLINATION    = 42.9993
RA_OF_ASC_NODE = 65.6360
ARG_OF_PERICENTER = 273.1662
MEAN_ANOMALY   = 86.8888

EPHEMERIS_TYPE = 0
CLASSIFICATION_TYPE = U
NORAD_CAT_ID   = 66446
ELEMENT_SET_NO = 999
REV_AT_EPOCH   = 568
BSTAR          = .23987E-2
MEAN_MOTION_DOT = .143221E-2
MEAN_MOTION_DDOT = 0

CCSDS_OMM_VERS = 2.0
CREATION_DATE  = 
ORIGINATOR     = 

OBJECT_NAME    = STARLINK-34851
OBJECT_ID      = 2025-259AB
CENTER_NAME    = EARTH
REF_FRAME      = TEME
TIME_SYSTEM    = UTC
MEAN_ELEMENT_THEORY = SGP/SGP4

EPOCH          = 2025-12-10T05:41:44.121408
MEAN_MOTION    = 15.50651186
ECCENTRICITY   = .00013213
INCLINATION    = 42.9984
RA_OF_ASC_NODE = 61.8661
ARG_OF_PERICENTER = 284.8329
MEAN_ANOMALY   = 75.2384

EPHEMERIS_TYPE = 0
CLASSIFICATION_TYPE = U
NORAD_CAT_ID   = 66447
ELEMENT_SET_NO = 999
REV_AT_EPOCH   = 567
BSTAR          = .17574292E-2
MEAN_MOTION_DOT = .104412E-2
MEAN_MOTION_DDOT = 0

