STARLINK-35501          
1 66436U 25259Q   25344.25002315  .00069585  00000+0  16615-2 0  9997
2 66436  42.9999  62.0011 0000978 268.8785  75.8556 15.40635034  5885
STARLINK-35474          
1 66437U 25259R   25344.25002315  .00071085  00000+0  16969-2 0  9998
2 66437  42.9998  61.9699 0001353 268.0500  89.1232 15.40633265  5883
STARLINK-34681          
1 66438U 25259S   25344.25002315 -.00069955  00000+0 -16819-2 0  9998
2 66438  43.0002  61.9403 0001131 285.1427  84.4312 15.40715332  5778
STARLINK-35327          
1 66439U 25259T   25344.25002315 -.00046964  00000+0 -11232-2 0  9998
2 66439  43.0001  62.0324 0000687 250.5725  81.6566 15.40719988  5887
STARLINK-35405          
1 66440U 25259U   25344.25002315 -.00178664  00000+0 -43591-2 0  9996
2 66440  43.0003  61.9112 0001526 268.8365 113.1513 15.40778599  5885
STARLINK-35426          
1 66441U 25259V   25344.25002315 -.02303976  00000+0 -57927-1 0  9992
2 66441  43.0004  61.8842 0001571 267.3049 125.8844 15.42606673  5881
STARLINK-34724          
1 66442U 25259W   25344.25002315 -.01959146  00000+0 -47351-1 0  9998
2 66442  43.0009  61.8602 0001427 282.2031 120.8762 15.43767618  5880
STARLINK-35219          
1 66443U 25259X   25344.25002315 -.02044447  00000+0 -47414-1 0  9999
2 66443  43.0003  61.8398 0001316 268.8685 142.6491 15.45119562  5779
STARLINK-35360          
1 66444U 25259Y   25343.59350596  .00107686  00000+0  18101-2 0  9996
2 66444  43.0004  65.6336 0003008 269.9974  90.0542 15.50671448  5683
STARLINK-34698          
1 66445U 25259Z   25344.25002315 -.02040488  00000+0 -45175-1 0  9994
2 66445  43.0011  61.8220 0001344 269.9261 148.6112 15.46449762  5772
STARLINK-34986          
1 66446U 25259AA  25343.59384297  .00143221  00000+0  23987-2 0  9996
2 66446  42.9993  65.6360 0002711 273.1662  86.8888 15.50623850  5688
STARLINK-34851          
1 66447U 25259AB  25344.23731622  .00104412  00000+0  17574-2 0  9991
2 66447  42.9984  61.8661 0001321 284.8329  75.2384 15.50651186  5671
